QIANFAN-17              
1 60395U 24140S   25349.91864980  .00000083  00000+0  11014-3 0  9992
2 60395  88.9774 299.1055 0014057 189.9453 170.1423 13.50977520 68567
QIANFAN-18              
1 60396U 24140T   25349.89806925  .00000102  00000+0  13970-3 0  9990
2 60396  88.9767 298.6410 0013952 171.6862 188.4523 13.50977566 67959
QIANFAN-19              
1 61552U 24185A   25349.83936753  .00000472  00000+0  23988-3 0  9991
2 61552  88.9823  77.5872 0004940 301.6882  58.3823 14.14299095 70101
QIANFAN-20              
1 61553U 24185B   25349.88390481  .00000531  00000+0  29944-3 0  9993
2 61553  88.9821  77.9091 0004949 353.0267   7.0847 14.08847803 69939
QIANFAN-21              
1 61554U 24185C   25349.84546414  .00000647  00000+0  28310-3 0  9993
2 61554  88.9737  76.6168 0010215   5.2069 354.9227 14.22612242 70410
QIANFAN-22              
1 61555U 24185D   25349.89344906  .00000194  00000+0  15610-3 0  9997
2 61555  88.9805  78.9017 0006002   4.7920 355.3308 13.86304184 69374
QIANFAN-23              
1 61556U 24185E   25349.88104810  .00000450  00000+0  21981-3 0  9998
2 61556  88.9814  77.3907 0005865 316.2875  43.7848 14.16295611 70199
QIANFAN-24              
1 61557U 24185F   25349.84551564  .00000600  00000+0  25607-3 0  9993
2 61557  88.9795  76.7947 0007333 291.1478  68.8931 14.23814545 70469
